NORAD_CAT_ID,OBJECT_NAME,OBJECT_TYPE,EPOCH,MEAN_MOTION,ECCENTRICITY,INCLINATION,RA_OF_ASC_NODE,ARG_OF_PERICENTER,MEAN_ANOMALY,BSTAR,MEAN_MOTION_DOT,MEAN_MOTION_DDOT,TLE_LINE0,TLE_LINE1,TLE_LINE2,SEMIMAJOR_AXIS,PERIOD,APOGEE,PERIGEE,DECAYED
53640.0,STARLINK-4597,PAYLOAD,2022-09-12 04:00:00,15.73217079,8.809999999999999e-05,53.2159,213.5291,94.859,277.4354,-2.2989e-05,-3.846e-05,0.0,0 STARLINK-4597,1 53640U 22104BE  22255.16667824 -.00003846  00000-0 -22989-4 0  9990,2 53640  53.2159 213.5291 0000881  94.8590 277.4354 15.73217079  2398,6727.846,91.532,350.30400000000014,349.119,0.0
53640.0,STARLINK-4597,PAYLOAD,2022-09-12 12:00:00,15.73282419,8.51e-05,53.2159,211.8791,91.9014,9.3346,-0.00043754,-0.00061789,0.0,0 STARLINK-4597,1 53640U 22104BE  22255.50001157 -.00061789  00000-0 -43754-3 0  9991,2 53640  53.2159 211.8791 0000851  91.9014   9.3346 15.73282419  1303,6727.66,91.528,350.098,348.95300000000015,0.0
53640.0,STARLINK-4597,PAYLOAD,2022-09-12 22:00:00,15.73255695,0.0001157,53.2162,209.8162,103.385,199.0796,-0.00038212,-0.00054031,0.0,0 STARLINK-4597,1 53640U 22104BE  22255.91667824 -.00054031  00000-0 -38212-3 0  9990,2 53640  53.2162 209.8162 0001157 103.3850 199.0796 15.73255695  1304,6727.736,91.53,350.38,348.8230000000001,0.0
53640.0,STARLINK-4597,PAYLOAD,2022-09-13 06:00:00,15.73211757,0.0001193,53.2158,208.1687,92.3627,299.0756,-0.00036255,-0.00051217,0.0,0 STARLINK-4597,1 53640U 22104BE  22256.25001157 -.00051217  00000-0 -36255-3 0  9997,2 53640  53.2158 208.1687 0001193  92.3627 299.0756 15.73211757  2569,6727.861999999999,91.532,350.529,348.9240000000001,0.0
53640.0,STARLINK-4597,PAYLOAD,2022-09-13 14:00:01,15.73170759,0.00011,53.2158,206.5176,104.012,16.351,-0.00015126,-0.00021766,0.0,0 STARLINK-4597,1 53640U 22104BE  22256.58334491 -.00021766  00000-0 -15126-3 0  9993,2 53640  53.2158 206.5176 0001100 104.0120  16.3510 15.73170759  1306,6727.979,91.535,350.584,349.103,0.0
53640.0,STARLINK-4597,PAYLOAD,2022-09-13 22:00:00,15.73150395,0.0001149999999999,53.2157,204.868,112.2862,96.9713,0.00023992,0.00033112,0.0,0 STARLINK-4597,1 53640U 22104BE  22256.91667824  .00033112  00000-0  23992-3 0  9995,2 53640  53.2157 204.8680 0001150 112.2862  96.9713 15.73150395  1308,6728.0369999999975,91.536,350.675,349.12800000000016,0.0
53640.0,STARLINK-4597,PAYLOAD,2022-09-14 04:00:00,15.73158392,0.0001044999999999,53.2165,203.6334,98.7767,87.1398,0.00043614,0.00060925,0.0,0 STARLINK-4597,1 53640U 22104BE  22257.16667824  .00060925  00000-0  43614-3 0  9998,2 53640  53.2165 203.6334 0001045  98.7767  87.1398 15.73158392  2717,6728.014,91.536,350.582,349.176,0.0
53640.0,STARLINK-4597,PAYLOAD,2022-09-14 14:00:01,15.73160475,0.0001217,53.2159,201.5695,107.6068,279.4277,5.0294e-05,6.432e-05,0.0,0 STARLINK-4597,1 53640U 22104BE  22257.58334491  .00006432  00000-0  50294-4 0  9991,2 53640  53.2159 201.5695 0001217 107.6068 279.4277 15.73160475  2775,6728.0080000000025,91.535,350.69199999999995,349.05400000000014,0.0
53640.0,STARLINK-4597,PAYLOAD,2022-09-14 20:00:01,15.73192958,0.0001286999999999,53.2156,200.332,113.3421,250.3321,0.0006033,0.00084883,0.0,0 STARLINK-4597,1 53640U 22104BE  22257.83334491  .00084883  00000-0  60330-3 0  9996,2 53640  53.2156 200.3320 0001287 113.3421 250.3321 15.73192958  2812,6727.915,91.534,350.646,348.914,0.0
53640.0,STARLINK-4597,PAYLOAD,2022-09-14 22:00:00,15.7323077,0.0001277,53.2155,199.9201,113.1181,2.7823,0.00029338,0.00040808,0.0,0 STARLINK-4597,1 53640U 22104BE  22257.91667824  .00040808  00000-0  29338-3 0  9996,2 53640  53.2155 199.9201 0001277 113.1181   2.7823 15.73230770  1306,6727.807,91.531,350.532,348.81300000000016,0.0
53640.0,STARLINK-4597,PAYLOAD,2022-09-15 04:00:00,15.73263697,0.0001124,53.215,198.6846,106.1508,346.4827,-0.0002771999999999,-0.00039446,0.0,0 STARLINK-4597,1 53640U 22104BE  22258.16667824 -.00039446  00000-0 -27720-3 0  9995,2 53640  53.2150 198.6846 0001124 106.1508 346.4827 15.73263697  2877,6727.714,91.529,350.335,348.82199999999995,0.0
53640.0,STARLINK-4597,PAYLOAD,2022-09-15 14:00:01,15.73239881,0.0001184,53.2148,196.6211,116.6251,177.2437,-0.0001145,-0.00016685,0.0,0 STARLINK-4597,1 53640U 22104BE  22258.58334491 -.00016685  00000-0 -11450-3 0  9995,2 53640  53.2148 196.6211 0001184 116.6251 177.2437 15.73239881  1307,6727.781,91.531,350.4430000000001,348.85,0.0
53640.0,STARLINK-4597,PAYLOAD,2022-09-15 22:00:00,15.73273804,0.0001323,53.215,194.9715,115.7939,267.0217,-0.00053374,-0.00075097,0.0,0 STARLINK-4597,1 53640U 22104BE  22258.91667824 -.00075097  00000-0 -53374-3 0  9994,2 53640  53.2150 194.9715 0001323 115.7939 267.0217 15.73273804  1305,6727.685,91.529,350.44,348.66,0.0
53640.0,STARLINK-4597,PAYLOAD,2022-09-16 00:00:00,15.73278695,0.0001328,53.2149,194.5597,112.8285,22.2343,-0.00081815,-0.00114279,0.0,0 STARLINK-4597,1 53640U 22104BE  22259.00001157 -.00114279  00000-0 -81815-3 0  9993,2 53640  53.2149 194.5597 0001328 112.8285  22.2343 15.73278695  3007,6727.670999999999,91.529,350.42900000000014,348.642,0.0
53640.0,STARLINK-4597,PAYLOAD,2022-09-16 14:00:01,15.73124458,0.0001322,53.215,191.6723,114.6648,86.06,0.00030488,0.00042245,0.0,0 STARLINK-4597,1 53640U 22104BE  22259.58334491  .00042245  00000-0  30488-3 0  9997,2 53640  53.2150 191.6723 0001322 114.6648  86.0600 15.73124458  3095,6728.111,91.538,350.865,349.086,0.0
53640.0,STARLINK-4597,PAYLOAD,2022-09-16 22:00:00,15.73168216,0.000144,53.2148,190.0233,115.0432,174.5196,0.00020708,0.00028501,0.0,0 STARLINK-4597,1 53640U 22104BE  22259.91667824  .00028501  00000-0  20708-3 0  9996,2 53640  53.2148 190.0233 0001440 115.0432 174.5196 15.73168216  1303,6727.986,91.535,350.82,348.88199999999995,0.0
53640.0,STARLINK-4597,PAYLOAD,2022-09-17 14:00:01,15.73177902,0.0001205,53.2141,186.724,127.0319,340.3771,0.00022059,0.00030421,0.0,0 STARLINK-4597,1 53640U 22104BE  22260.58334491  .00030421  00000-0  22059-3 0  9997,2 53640  53.2141 186.7240 0001205 127.0319 340.3771 15.73177902  1306,6727.958000000001,91.534,350.634,349.01199999999994,0.0
53640.0,STARLINK-4597,PAYLOAD,2022-09-17 22:00:00,15.7323783,0.0001171,53.2143,185.0748,130.35299999999998,65.9597,-0.00012593,-0.00018283,0.0,0 STARLINK-4597,1 53640U 22104BE  22260.91667824 -.00018283  00000-0 -12593-3 0  9999,2 53640  53.2143 185.0748 0001171 130.3530  65.9597 15.73237830  1300,6727.7869999999975,91.531,350.44,348.86400000000015,0.0
53640.0,STARLINK-4597,PAYLOAD,2022-09-18 14:00:01,15.732209,0.0001042999999999,53.2145,181.7751,134.9086,239.3844,-0.00016718,-0.00024036,0.0,0 STARLINK-4597,1 53640U 22104BE  22261.58335648 -.00024036  00000-0 -16718-3 0  9995,2 53640  53.2145 181.7751 0001043 134.9086 239.3844 15.73220900  1305,6727.8359999999975,91.532,350.402,348.999,0.0
53640.0,STARLINK-4597,PAYLOAD,2022-09-18 22:00:00,15.73229612,0.0001202,53.2144,180.1263,124.8131,338.3497,1.1195e-05,9.53e-06,0.0,0 STARLINK-4597,1 53640U 22104BE  22261.91667824  .00000953  00000-0  11195-4 0  9991,2 53640  53.2144 180.1263 0001202 124.8131 338.3497 15.73229612  1304,6727.811,91.531,350.4840000000001,348.867,0.0
53640.0,STARLINK-4597,PAYLOAD,2022-09-19 06:00:02,15.7321261,0.0001215,53.2138,178.47799999999995,114.1246,78.07600000000002,7.832600000000001e-05,0.00010392,0.0,0 STARLINK-4597,1 53640U 22104BE  22262.25002315  .00010392  00000-0  78326-4 0  9994,2 53640  53.2138 178.4780 0001215 114.1246  78.0760 15.73212610  3510,6727.859,91.532,350.542,348.907,0.0
53640.0,STARLINK-4597,PAYLOAD,2022-09-19 14:00:01,15.73244235,0.0001229,53.214,176.8265,132.6056,148.4271,-0.00017266,-0.00024826,0.0,0 STARLINK-4597,1 53640U 22104BE  22262.58334491 -.00024826  00000-0 -17266-3 0  9997,2 53640  53.2140 176.8265 0001229 132.6056 148.4271 15.73244235  1304,6727.769,91.531,350.461,348.807,0.0
53640.0,STARLINK-4597,PAYLOAD,2022-09-19 22:00:00,15.73248231,0.0001144,53.2143,175.1777,132.0826,237.9118,-0.00049619,-0.00069823,0.0,0 STARLINK-4597,1 53640U 22104BE  22262.91667824 -.00069823  00000-0 -49619-3 0  9996,2 53640  53.2143 175.1777 0001144 132.0826 237.9118 15.73248231  3612,6727.7580000000025,91.53,350.392,348.853,0.0
53640.0,STARLINK-4597,PAYLOAD,2022-09-20 14:00:01,15.73135858,0.0001337,53.2146,171.8777,126.7229,61.159,0.00058204,0.00081637,0.0,0 STARLINK-4597,1 53640U 22104BE  22263.58334491  .00081637  00000-0  58204-3 0  9996,2 53640  53.2146 171.8777 0001337 126.7229  61.1590 15.73135858  3722,6728.078,91.537,350.843,349.0440000000001,0.0
53640.0,STARLINK-4597,PAYLOAD,2022-09-20 22:00:01,15.73216385,0.000137,53.2145,170.2293,124.0795,152.7473,-2.1825e-05,-3.684e-05,0.0,0 STARLINK-4597,1 53640U 22104BE  22263.91668981 -.00003684  00000-0 -21825-4 0  9995,2 53640  53.2145 170.2293 0001370 124.0795 152.7473 15.73216385  1307,6727.848000000001,91.532,350.635,348.792,0.0
53640.0,STARLINK-4597,PAYLOAD,2022-09-21 06:00:00,15.73244303,0.0001165,53.214,168.5808,120.2292,245.4774,-0.00019961,-0.00028591,0.0,0 STARLINK-4597,1 53640U 22104BE  22264.25001157 -.00028591  00000-0 -19961-3 0  9990,2 53640  53.2140 168.5808 0001165 120.2292 245.4774 15.73244303  3820,6727.769,91.531,350.418,348.85,0.0
53640.0,STARLINK-4597,PAYLOAD,2022-09-21 22:00:00,15.73217051,0.0001305,53.2145,165.2809,130.1005,53.5377,-6.4916999999999975e-06,-1.532e-05,0.0,0 STARLINK-4597,1 53640U 22104BE  22264.91667824 -.00001532  00000-0 -64917-5 0  9991,2 53640  53.2145 165.2809 0001305 130.1005  53.5377 15.73217051  1306,6727.847,91.532,350.59,348.834,0.0
53640.0,STARLINK-4597,PAYLOAD,2022-09-22 14:00:01,15.73186806,0.0001207,53.2148,161.9806,137.75799999999998,223.7279,4.2706e-05,5.374e-05,0.0,0 STARLINK-4597,1 53640U 22104BE  22265.58334491  .00005374  00000-0  42706-4 0  9993,2 53640  53.2148 161.9806 0001207 137.7580 223.7279 15.73186806  4039,6727.933000000001,91.534,350.61,348.986,0.0
